{"type": "FeatureCollection", "features": [ {"type": "Feature", "properties": {"norad_id": 42969, "name": "SENTINEL-5P", "group": "resource", "lat": 0.9959616790960211, "lon": -75.08258277462693, "alt_km": 829.712835104754, "timestamp": "2025-12-12T11:38:31.073767+00:00", "meta": {"OBJECT_NAME": "SENTINEL-5P", "OBJECT_ID": "2017-064A", "EPOCH": "2025-12-11T20:24:44.038944", "MEAN_MOTION": 14.1951721, "ECCENTRICITY": 9.48e-05, "INCLINATION": 98.7784, "RA_OF_ASC_NODE": 284.4425, "ARG_OF_PERICENTER": 88.5095, "MEAN_ANOMALY": 271.6189, "EPHEMERIS_TYPE": 0, "CLASSIFICATION_TYPE": "U", "NORAD_CAT_ID": 42969, "ELEMENT_SET_NO": 999, "REV_AT_EPOCH": 42298, "BSTAR": 9.6727e-05, "MEAN_MOTION_DOT": 1.6e-06, "MEAN_MOTION_DDOT": 0}, "tle": {"line1": "1 42969U 17064A   25345.85050971  .00000160  00000+0  96727-4 0  9993", "line2": "2 42969  98.7784 284.4425 0000948  88.5095 271.6189 14.19517210422980"}}, "geometry": {"type": "Point", "coordinates": [-75.08258277462693, 0.9959616790960211]}}, {"type": "Feature", "properties": {"norad_id": 42987, "name": "SKYSAT-C11", "group": "resource", "lat": -2.457162449144753, "lon": 124.28979937034165, "alt_km": 427.880891350148, "timestamp": "2025-12-12T11:38:31.073777+00:00", "meta": {"OBJECT_NAME": "SKYSAT-C11", "OBJECT_ID": "2017-068A", "EPOCH": "2025-12-11T23:14:12.035904", "MEAN_MOTION": 15.47394077, "ECCENTRICITY": 9.99e-05, "INCLINATION": 97.414, "RA_OF_ASC_NODE": 123.4401, "ARG_OF_PERICENTER": 103.6919, "MEAN_ANOMALY": 256.4442, "EPHEMERIS_TYPE": 0, "CLASSIFICATION_TYPE": "U", "NORAD_CAT_ID": 42987, "ELEMENT_SET_NO": 999, "REV_AT_EPOCH": 45419, "BSTAR": 0.00052426, "MEAN_MOTION_DOT": 0.0002679, "MEAN_MOTION_DDOT": 0}, "tle": {"line1": "1 42987U 17068A   25345.96819486  .00026790  00000+0  52426-3 0  9997", "line2": "2 42987  97.4140 123.4401 0000999 103.6919 256.4442 15.47394077454195"}}, "geometry": {"type": "Point", "coordinates": [124.28979937034165, -2.457162449144753]}}, {"type": "Feature", "properties": {"norad_id": 42988, "name": "SKYSAT-C10", "group": "resource", "lat": 82.23941736468123, "lon": 10.471381199340998, "alt_km": 458.6491824223658, "timestamp": "2025-12-12T11:38:31.073787+00:00", "meta": {"OBJECT_NAME": "SKYSAT-C10", "OBJECT_ID": "2017-068B", "EPOCH": "2025-12-11T21:07:59.265984", "MEAN_MOTION": 15.32032287, "ECCENTRICITY": 0.0005338, "INCLINATION": 97.4255, "RA_OF_ASC_NODE": 116.7289, "ARG_OF_PERICENTER": 105.8367, "MEAN_ANOMALY": 254.3464, "EPHEMERIS_TYPE": 0, "CLASSIFICATION_TYPE": "U", "NORAD_CAT_ID": 42988, "ELEMENT_SET_NO": 999, "REV_AT_EPOCH": 45366, "BSTAR": 0.00051102, "MEAN_MOTION_DOT": 0.00015748, "MEAN_MOTION_DDOT": 0}, "tle": {"line1": "1 42988U 17068B   25345.88054706  .00015748  00000+0  51102-3 0  9996", "line2": "2 42988  97.4255 116.7289 0005338 105.8367 254.3464 15.32032287453663"}}, "geometry": {"type": "Point", "coordinates": [10.471381199340998, 82.23941736468123]}}, {"type": "Feature", "properties": {"norad_id": 42989, "name": "SKYSAT-C9", "group": "resource", "lat": -63.00368626314554, "lon": 131.55557676747, "alt_km": 471.4885335473473, "timestamp": "2025-12-12T11:38:31.073797+00:00", "meta": {"OBJECT_NAME": "SKYSAT-C9", "OBJECT_ID": "2017-068C", "EPOCH": "2025-12-11T21:50:56.342976", "MEAN_MOTION": 15.36015875, "ECCENTRICITY": 0.0010638, "INCLINATION": 97.4186, "RA_OF_ASC_NODE": 116.1574, "ARG_OF_PERICENTER": 90.1838, "MEAN_ANOMALY": 270.0624, "EPHEMERIS_TYPE": 0, "CLASSIFICATION_TYPE": "U", "NORAD_CAT_ID": 42989, "ELEMENT_SET_NO": 999, "REV_AT_EPOCH": 45395, "BSTAR": 0.00055434, "MEAN_MOTION_DOT": 0.0001942, "MEAN_MOTION_DDOT": 0}, "tle": {"line1": "1 42989U 17068C   25345.91037434  .00019420  00000+0  55434-3 0  9993", "line2": "2 42989  97.4186 116.1574 0010638  90.1838 270.0624 15.36015875453959"}}, "geometry": {"type": "Point", "coordinates": [131.55557676747, -63.00368626314554]}}, {"type": "Feature", "properties": {"norad_id": 42990, "name": "SKYSAT-C8", "group": "resource", "lat": -82.56494050701691, "lon": -152.1218634167796, "alt_km": 474.32724192153364, "timestamp": "2025-12-12T11:38:31.073807+00:00", "meta": {"OBJECT_NAME": "SKYSAT-C8", "OBJECT_ID": "2017-068D", "EPOCH": "2025-12-11T21:56:05.347392", "MEAN_MOTION": 15.32889856, "ECCENTRICITY": 0.0001633, "INCLINATION": 97.4277, "RA_OF_ASC_NODE": 115.9102, "ARG_OF_PERICENTER": 352.601, "MEAN_ANOMALY": 7.5208, "EPHEMERIS_TYPE": 0, "CLASSIFICATION_TYPE": "U", "NORAD_CAT_ID": 42990, "ELEMENT_SET_NO": 999, "REV_AT_EPOCH": 45358, "BSTAR": 0.00052146, "MEAN_MOTION_DOT": 0.00016504, "MEAN_MOTION_DDOT": 0}, "tle": {"line1": "1 42990U 17068D   25345.91395078  .00016504  00000+0  52146-3 0  9993", "line2": "2 42990  97.4277 115.9102 0001633 352.6010   7.5208 15.32889856453583"}}, "geometry": {"type": "Point", "coordinates": [-152.1218634167796, -82.56494050701691]}}, {"type": "Feature", "properties": {"norad_id": 42991, "name": "SKYSAT-C7", "group": "resource", "lat": 53.38255535371001, "lon": -52.362781878410566, "alt_km": 462.00797838327435, "timestamp": "2025-12-12T11:38:31.073817+00:00", "meta": {"OBJECT_NAME": "SKYSAT-C7", "OBJECT_ID": "2017-068E", "EPOCH": "2025-12-11T20:59:22.535232", "MEAN_MOTION": 15.32294521, "ECCENTRICITY": 0.0007687, "INCLINATION": 97.4285, "RA_OF_ASC_NODE": 116.9127, "ARG_OF_PERICENTER": 59.5995, "MEAN_ANOMALY": 300.6005, "EPHEMERIS_TYPE": 0, "CLASSIFICATION_TYPE": "U", "NORAD_CAT_ID": 42991, "ELEMENT_SET_NO": 999, "REV_AT_EPOCH": 45364, "BSTAR": 0.00051899, "MEAN_MOTION_DOT": 0.00016134, "MEAN_MOTION_DDOT": 0}, "tle": {"line1": "1 42991U 17068E   25345.87456638  .00016134  00000+0  51899-3 0  9992", "line2": "2 42991  97.4285 116.9127 0007687  59.5995 300.6005 15.32294521453649"}}, "geometry": {"type": "Point", "coordinates": [-52.362781878410566, 53.38255535371001]}}, {"type": "Feature", "properties": {"norad_id": 42992, "name": "SKYSAT-C6", "group": "resource", "lat": -62.62524093409934, "lon": -76.63767221443156, "alt_km": 481.9827531075043, "timestamp": "2025-12-12T11:38:31.073827+00:00", "meta": {"OBJECT_NAME": "SKYSAT-C6", "OBJECT_ID": "2017-068F", "EPOCH": "2025-12-11T22:02:13.295616", "MEAN_MOTION": 15.31460261, "ECCENTRICITY": 0.0005191, "INCLINATION": 97.4318, "RA_OF_ASC_NODE": 117.3957, "ARG_OF_PERICENTER": 84.6531, "MEAN_ANOMALY": 275.5302, "EPHEMERIS_TYPE": 0, "CLASSIFICATION_TYPE": "U", "NORAD_CAT_ID": 42992, "ELEMENT_SET_NO": 999, "REV_AT_EPOCH": 45363, "BSTAR": 0.00052081, "MEAN_MOTION_DOT": 0.00015766, "MEAN_MOTION_DDOT": 0}, "tle": {"line1": "1 42992U 17068F   25345.91820944  .00015766  00000+0  52081-3 0  9997", "line2": "2 42992  97.4318 117.3957 0005191  84.6531 275.5302 15.31460261453630"}}, "geometry": {"type": "Point", "coordinates": [-76.63767221443156, -62.62524093409934]}}, {"type": "Feature", "properties": {"norad_id": 43111, "name": "CARTOSAT-2F", "group": "resource", "lat": 0.9743731926181685, "lon": 43.9989972880978, "alt_km": 511.50889397698757, "timestamp": "2025-12-12T11:38:31.073837+00:00", "meta": {"OBJECT_NAME": "CARTOSAT-2F", "OBJECT_ID": "2018-004A", "EPOCH": "2025-12-12T03:44:02.749632", "MEAN_MOTION": 15.19270715, "ECCENTRICITY": 0.0001026, "INCLINATION": 97.4319, "RA_OF_ASC_NODE": 43.802, "ARG_OF_PERICENTER": 140.089, "MEAN_ANOMALY": 220.042, "EPHEMERIS_TYPE": 0, "CLASSIFICATION_TYPE": "U", "NORAD_CAT_ID": 43111, "ELEMENT_SET_NO": 999, "REV_AT_EPOCH": 43893, "BSTAR": 0.00047029, "MEAN_MOTION_DOT": 9.856e-05, "MEAN_MOTION_DDOT": 0}, "tle": {"line1": "1 43111U 18004A   25346.15558738  .00009856  00000+0  47029-3 0  9997", "line2": "2 43111  97.4319  43.8020 0001026 140.0890 220.0420 15.19270715438938"}}, "geometry": {"type": "Point", "coordinates": [43.9989972880978, 0.9743731926181685]}}, {"type": "Feature", "properties": {"norad_id": 43259, "name": "GAOFEN-1 02", "group": "resource", "lat": 13.024820159696546, "lon": -133.84267503205666, "alt_km": 641.0718301911029, "timestamp": "2025-12-12T11:38:31.073853+00:00", "meta": {"OBJECT_NAME": "GAOFEN-1 02", "OBJECT_ID": "2018-031A", "EPOCH": "2025-12-12T04:22:58.456128", "MEAN_MOTION": 14.76413015, "ECCENTRICITY": 0.0001763, "INCLINATION": 98.0804, "RA_OF_ASC_NODE": 43.9715, "ARG_OF_PERICENTER": 219.7799, "MEAN_ANOMALY": 140.3281, "EPHEMERIS_TYPE": 0, "CLASSIFICATION_TYPE": "U", "NORAD_CAT_ID": 43259, "ELEMENT_SET_NO": 999, "REV_AT_EPOCH": 41510, "BSTAR": 0.00021421, "MEAN_MOTION_DOT": 1.437e-05, "MEAN_MOTION_DDOT": 0}, "tle": {"line1": "1 43259U 18031A   25346.18262102  .00001437  00000+0  21421-3 0  9995", "line2": "2 43259  98.0804  43.9715 0001763 219.7799 140.3281 14.76413015415106"}}, "geometry": {"type": "Point", "coordinates": [-133.84267503205666, 13.024820159696546]}}, {"type": "Feature", "properties": {"norad_id": 43260, "name": "GAOFEN-1 03", "group": "resource", "lat": -75.67200049521414, "lon": 77.94384533601496, "alt_km": 646.8619423814571, "timestamp": "2025-12-12T11:38:31.073863+00:00", "meta": {"OBJECT_NAME": "GAOFEN-1 03", "OBJECT_ID": "2018-031B", "EPOCH": "2025-12-12T03:51:45.605664", "MEAN_MOTION": 14.76435093, "ECCENTRICITY": 0.0002024, "INCLINATION": 98.08, "RA_OF_ASC_NODE": 43.827, "ARG_OF_PERICENTER": 324.8903, "MEAN_ANOMALY": 35.2172, "EPHEMERIS_TYPE": 0, "CLASSIFICATION_TYPE": "U", "NORAD_CAT_ID": 43260, "ELEMENT_SET_NO": 999, "REV_AT_EPOCH": 41509, "BSTAR": 0.00022272, "MEAN_MOTION_DOT": 1.497e-05, "MEAN_MOTION_DDOT": 0}, "tle": {"line1": "1 43260U 18031B   25346.16094451  .00001497  00000+0  22272-3 0  9996", "line2": "2 43260  98.0800  43.8270 0002024 324.8903  35.2172 14.76435093415094"}}, "geometry": {"type": "Point", "coordinates": [77.94384533601496, -75.67200049521414]}}]}